format  = 'OEF2.0'       ! file format
rectype = 'ML'           ! record type (1L/ML)
refsys  = ECLM J2000     ! default reference system
END_OF_HEADER
2015AB
! Keplerian elements: a, e, i, long. node, arg. peric., mean anomaly
 KEP   1.8014744653395063E+00  2.8368172214180509E-01  11.6122334450473   0.4605028239074  71.2931300143070  1.7674631050296162E+02
 MJD     57420.852154344 TDT
 MAG  20.292  0.150
! Non-gravitational parameters: model used, number of model parameters, dimension
 LSP   0  0    6
! PERIHELION   1.2904290866175074E+00
! APHELION   2.3125198440615047E+00
! ANODE   5.1470661802276230E-01
! DNODE   8.2583732406271648E-01
! MOID   3.6522026935256874E-01
! PERIOD   8.8316244449594228E+02
! PHA F
! VINFTY     0.0000000000000
! U_PAR 0.2
! ORB_TYPE Amor  
! RMS    1.65946E-08   9.34471E-08   8.61024E-06   5.07803E-05   5.45807E-05   2.29805E-05
 COV   2.753806725481285E-16  9.669311918759311E-16 -5.251650268646110E-14
 COV   9.890552180160133E-14  2.492744593298972E-13 -2.728618317728430E-13
 COV   8.732358925138219E-15 -4.430446474654254E-13  8.741688210559178E-13
 COV   1.234810973144134E-12 -1.647600544728367E-12  7.413627940144902E-11
 COV  -2.636718154476542E-10  1.233207691216412E-10  1.011961071862715E-10
 COV   2.578636153317079E-09 -2.266373452029209E-09 -1.965042097996939E-10
 COV   2.979047712314740E-09 -5.281428356469499E-10  5.281043189163840E-10
 COR   1.000000000000000E+00  6.235381828556074E-01 -3.675476710613528E-01
 COR   1.173704519077676E-01  2.752151425065574E-01 -7.155108150423298E-01
 COR   1.000000000000000E+00 -5.506381680141836E-01  1.842190293709912E-01
 COR   2.421006534533698E-01 -7.672312402117495E-01  9.999999999999999E-01
 COR  -6.030499452750313E-01  2.624110396053005E-01  5.114327716788269E-01
 COR   9.999999999999999E-01 -8.177069917263083E-01 -1.683902592717160E-01
 COR   9.999999999999999E-01 -4.210685490659368E-01  1.000000000000000E+00
